SPACEBEE-5              
1 43817U 18099BM  22251.62166124  .00009858  00000+0  75022-3 0  9998
2 43817  97.6258 321.3177 0005301 336.1068  23.9910 15.02291947205250
SPACEBEE-6              
1 43818U 18099BN  22251.66879086  .00005210  00000+0  43120-3 0  9993
2 43818  97.6244 318.9618 0010481 342.7143  17.3722 14.99275488205301
SHIELDS 1               
1 43850U 18104B   22251.83874367  .00004087  00000+0  16658-3 0  9999
2 43850  85.0327 356.8680 0012453 325.9862  34.0581 15.24067629207207
STF-1                   
1 43852U 18104D   22251.60904649  .00011123  00000+0  40523-3 0  9990
2 43852  85.0351 357.0693 0011323 338.7860  21.2914 15.27994050207239
ZACUBE-2                
1 43907U 18111AH  22251.99904650  .00008442  00000+0  30219-3 0  9994
2 43907  97.1782 135.3409 0020653 137.9399 346.6871 15.28806210206052
LUME 1                  
1 43908U 18111AJ  22251.90634056  .00009984  00000+0  32688-3 0  9990
2 43908  97.1790 137.1110 0019428 131.4401 228.8514 15.31678734206161
AOBA VELOX-IV           
1 43940U 19003J   22251.88675127  .00024801  00000+0  59665-3 0  9997
2 43940  97.1201 285.4628 0016039 194.3834 165.6959 15.41150049202968
MOVE-IIB                
1 44398U 19038N   22251.93344211  .00014171  00000+0  65418-3 0  9998
2 44398  97.6324 222.1655 0019849 192.6751 167.3985 15.20155026175713
SONATE                  
1 44400U 19038Q   22251.87912277  .00005222  00000+0  27978-3 0  9994
2 44400  97.6447 220.8265 0022299 201.7640 158.2656 15.15242112175561
LUCKY-7                 
1 44406U 19038W   22251.36182568  .00004537  00000+0  23664-3 0  9992
2 44406  97.6459 220.9122 0021610 199.8033 160.2363 15.16281767175526
BEESAT 9                
1 44412U 19038AC  22251.47526257  .00008503  00000+0  42066-3 0  9992
2 44412  97.6425 221.4618 0018983 201.5757 158.4678 15.17909929175284
JAISAT-1                
1 44419U 19038F   22251.89640618  .00007357  00000+0  35969-3 0  9993
2 44419  97.6429 222.7892 0018115 196.5439 163.5205 15.18388877175715
DUCHIFAT-3              
1 44854U 19089C   22251.60229079  .00003731  00000+0  28869-3 0  9998
2 44854  36.9680 327.2380 0007397 182.1978 319.5368 15.01519838150435
EYESAT-NANO             
1 44877U 19092E   22251.48413058  .00010794  00000+0  44886-3 0  9999
2 44877  97.4644  75.3592 0012356  68.2948 291.9604 15.23891698151001
ORBITAL FACTORY 2 (OF-2)
1 45113U 19071C   22251.81549250  .00035709  00000+0  64712-3 0  9994
2 45113  51.6381   8.0558 0007977 116.0030 244.1781 15.49245868146287
M2 PATHFINDER           
1 45727U 20037E   22251.44052593  .00002064  00000+0  20783-3 0  9995
2 45727  97.7386  65.4205 0013275 117.6633 242.5939 14.92202058119204
NETSAT-4                
1 46504U 20068U   22251.82741940  .00003532  00000+0  26104-3 0  9990
2 46504  97.7273 191.4920 0013872  49.3022 310.9407 15.03794160106572
NETSAT-3                
1 46505U 20068V   22251.77872000  .00004741  00000+0  34944-3 0  9991
2 46505  97.7254 191.3527 0012300  54.2354 306.0016 15.03746902106575
NETSAT-1                
1 46506U 20068W   22251.79823503  .00003001  00000+0  22343-3 0  9996
2 46506  97.7266 191.2940 0010957  63.3291 296.9055 15.03669435106579
NETSAT-2                
1 46507U 20068X   22251.80880980  .00002801  00000+0  20890-3 0  9993
2 46507  97.7275 191.2969 0010777  70.3855 289.8533 15.03659250106526
SAI-1 NANOCONNECT-2     
1 47701U 21015C   22251.73203170  .00011727  00000+0  42063-3 0  9998
2 47701  97.4191 328.3216 0011752 153.6018 206.5823 15.28798588 84938
BEESAT-6                
1 47957U 21022AB  22251.68363321  .00006036  00000+0  37946-3 0  9999
2 47957  97.5172 149.6721 0018566 218.7724 198.5757 15.09458469 80351
SMOG-1                  
1 47964U 21022AJ  22251.71191049  .00006264  00000+0  37857-3 0  9991
2 47964  97.5207 150.9276 0017092 204.5079 155.5340 15.10907059 79453
MMSATS-1                
1 47976U 98067SJ  22251.89558398  .00029686  00000+0  33094-3 0  9992
2 47976  51.6402 264.8199 0002217   9.5412  60.1354 15.62555936 83293
BCCSAT-1                
1 48041U 21022AK  22251.67938259  .00006603  00000+0  40950-3 0  9990
2 48041  97.5206 150.4119 0014003 202.7360 157.3251 15.09980553 79394
BEESAT-5                
1 48083U 21022AM  22251.66829752  .00007947  00000+0  49537-3 0  9994
2 48083  97.5174 149.6671 0018507 219.1501 203.9626 15.09670865 79485
BEESAT-7                
1 48084U 21022AN  22251.67561697  .00007221  00000+0  45195-3 0  9998
2 48084  97.5196 149.6769 0018888 216.5708 200.6093 15.09546328 79073
BEESAT-8                
1 48085U 21022AP  22251.67604722  .00005605  00000+0  35310-3 0  9998
2 48085  97.5176 149.6686 0018873 217.1314 173.2472 15.09407083 79636
RAMSAT                  
1 48850U 98067SL  22251.47281520  .00199509  00000+0  76397-3 0  9993
2 48850  51.6328 249.2663 0005860  47.9250 312.2251 15.86318481 70435
BD-28                   
1 48867U 98067SN  22251.82480675  .00911417  47834-3  97872-3 0  9993
2 48867  51.6165 239.3452 0004768  65.1354 295.0155 16.09460224 69349
BINAR-1                 
1 49272U 98067SR  22251.47714790  .00312161  47495-4  96527-3 0  9994
2 49272  51.6248 252.2066 0005042  38.6530 321.4836 15.91186903 52783
HSU-SAT1                
1 53462U 98067UB  22251.58475651  .00032900  00000+0  53592-3 0  9993
2 53462  51.6396 283.1243 0005396 238.9492 121.0969 15.52313102  4235
FUTABA                  
1 53463U 98067UC  22251.38892419  .00035774  00000+0  57632-3 0  9998
2 53463  51.6394 284.0662 0005265 240.5124 119.5341 15.52580960  4206
TUMNANOSAT              
1 53464U 98067UD  22251.38621763  .00040803  00000+0  64947-3 0  9997
2 53464  51.6396 284.0483 0005173 242.1039 117.9427 15.52853285  4201
BEIJING 1               
1 28890U 05043A   22251.79598622  .00000205  00000+0  50806-4 0  9998
2 28890  98.1274  12.7094 0013939 273.7384  86.2216 14.61486174899319
HJ-1A                   
1 33320U 08041A   22251.83411758  .00000292  00000+0  47335-4 0  9991
2 33320  97.6733 280.9640 0020328 324.6189  35.3666 14.77904061754706
HJ-1B                   
1 33321U 08041B   22251.78485273  .00000724  00000+0  10677-3 0  9997
2 33321  97.6900 284.6495 0033888 341.8378  18.1618 14.77853757754697
YAOGAN 4                
1 33446U 08061A   22251.81738985  .00000459  00000+0  71322-4 0  9992
2 33446  97.8200 189.4261 0015138 220.6126 139.3957 14.77452153741903
DEIMOS-1                
1 35681U 09041A   22251.86644951  .00000257  00000+0  48177-4 0  9996
2 35681  97.7068  98.6292 0001374  18.7854 341.3413 14.72100679704047
UK-DMC 2                
1 35683U 09041C   22251.79194374  .00000446  00000+0  79243-4 0  9997
2 35683  97.7050  60.3863 0001514  66.5439 293.5942 14.71479840703767
RISAT 1                 
1 38248U 12017A   22251.77595573  .00003601  00000+0  21133-3 0  9998
2 38248  97.5530 262.2512 0003456   0.1392 359.9838 15.12377152571416
DMC3-FM1                
1 40715U 15032A   22251.84219604  .00000350  00000+0  50380-4 0  9991
2 40715  97.8345 136.9761 0004546 245.3678 114.7071 14.82181214385641
DMC3-FM2                
1 40716U 15032B   22251.86512752  .00000362  00000+0  51944-4 0  9994
2 40716  97.8385 137.6828 0006547 248.4858 111.5672 14.82173873385650
DMC3-FM3                
1 40717U 15032C   22251.88665136  .00000361  00000+0  51775-4 0  9993
2 40717  97.8425 138.6514 0008446 246.9260 113.1067 14.82201711385658
NOAA 15                 
1 25338U 98030A   22251.83831461  .00000107  00000+0  62797-4 0  9999
2 25338  98.6400 280.2653 0011303  58.5330 301.6953 14.26168153265151
DMSP 5D-3 F15 (USA 147) 
1 25991U 99067A   22251.90302271  .00000123  00000+0  84900-4 0  9993
2 25991  99.0589 244.9268 0009404 317.1476 157.0289 14.16567058175580
METEOSAT-8 (MSG-1)      
1 27509U 02040B   22251.59910302  .00000118  00000+0  00000+0 0  9998
2 27509   8.1887  50.1834 0001797 121.3094  73.2903  1.00276322 73447
DMSP 5D-3 F16 (USA 172) 
1 28054U 03048A   22251.89214243  .00000052  00000+0  51630-4 0  9994
2 28054  98.9949 243.1543 0008474  81.9450 299.3608 14.13680925974827
NOAA 18                 
1 28654U 05018A   22251.84807886  .00000152  00000+0  10596-3 0  9991
2 28654  98.9434 322.1961 0015329  96.2396 264.0522 14.12772815891752
METEOSAT-9 (MSG-2)      
1 28912U 05049B   22251.67170648  .00000109  00000+0  00000+0 0  9999
2 28912   6.2024  65.7409 0000845 180.1550  29.3328  1.00275760 61222
EWS-G1 (GOES 13)        
1 29155U 06018A   22251.79478747  .00000014  00000+0  00000+0 0  9995
2 29155   0.7938  96.0175 0006258 106.6295 132.8837  1.00274417 29569
DMSP 5D-3 F17 (USA 191) 
1 29522U 06050A   22251.85221533  .00000110  00000+0  80811-4 0  9995
2 29522  98.7670 265.3427 0010394  30.2401 329.9370 14.14110156817693
FENGYUN 3A              
1 32958U 08026A   22251.82892329  .00000057  00000+0  47413-4 0  9992
2 32958  98.5107 211.0846 0009454 136.3568 223.8357 14.18737050740046
FENGYUN 2E              
1 33463U 08066A   22251.53632125 -.00000219  00000+0  00000+0 0  9999
2 33463   6.0863  64.8027 0002174  40.6178 161.4271  1.00274740 50272
NOAA 19                 
1 33591U 09005A   22251.85877118  .00000115  00000+0  87021-4 0  9990
2 33591  99.1424 287.7248 0013160 316.7970  43.2168 14.12606355699960
GOES 14                 
1 35491U 09033A   22251.64179675 -.00000114  00000+0  00000+0 0  9999
2 35491   0.4181 267.7357 0017300 302.9885 263.5017  1.00273056 48292
METEOR-M 1              
1 35865U 09049A   22251.75636740  .00000060  00000+0  45939-4 0  9998
2 35865  98.5369 219.5715 0002365  14.3413 345.7832 14.22354041673386
DMSP 5D-3 F18 (USA 210) 
1 35951U 09057A   22251.85941679  .00000198  00000+0  12800-3 0  9996
2 35951  98.7303 229.2199 0010400 204.1125 155.9562 14.13550336664919
GOES 15                 
1 36411U 10008A   22251.63264058  .00000030  00000+0  00000+0 0  9991
2 36411   0.3785 276.9181 0004955 252.7532 277.9745  1.00278106 45851
